{
    "links": {
        "self": "http://www.neowsapp.com/rest/v1/neo/3989401?api_key=iIulBulltgU6a56xZRHN4H3l9WmuAYTsLGpBGhQ2"
    },
    "id": "3989401",
    "neo_reference_id": "3989401",
    "name": "(2020 CH)",
    "designation": "2020 CH",
    "nasa_jpl_url": "http://ssd.jpl.nasa.gov/sbdb.cgi?sstr=3989401",
    "absolute_magnitude_h": 25.268,
    "estimated_diameter": {
        "kilometers": {
            "estimated_diameter_min": 0.0234938925,
            "estimated_diameter_max": 0.0525339406
        },
        "meters": {
            "estimated_diameter_min": 23.4938924658,
            "estimated_diameter_max": 52.5339406097
        },
        "miles": {
            "estimated_diameter_min": 0.0145984235,
            "estimated_diameter_max": 0.0326430672
        },
        "feet": {
            "estimated_diameter_min": 77.0797021576,
            "estimated_diameter_max": 172.3554537098
        }
    },
    "is_potentially_hazardous_asteroid": false,
    "close_approach_data": [
        {
            "close_approach_date": "2020-02-12",
            "close_approach_date_full": "2020-Feb-12 01:19",
            "epoch_date_close_approach": 1581470340000,
            "relative_velocity": {
                "kilometers_per_second": "9.4423537936",
                "kilometers_per_hour": "33992.4736569772",
                "miles_per_hour": "21121.6012009146"
            },
            "miss_distance": {
                "astronomical": "0.0297273476",
                "lunar": "11.5639382164",
                "kilometers": "4447147.881709612",
                "miles": "2763329.5564001656"
            },
            "orbiting_body": "Earth"
        },
        {
            "close_approach_date": "2106-01-24",
            "close_approach_date_full": "2106-Jan-24 09:56",
            "epoch_date_close_approach": 4293770160000,
            "relative_velocity": {
                "kilometers_per_second": "16.1086360568",
                "kilometers_per_hour": "57991.0898043223",
                "miles_per_hour": "36033.4079953579"
            },
            "miss_distance": {
                "astronomical": "0.2420653846",
                "lunar": "94.1634346094",
                "kilometers": "36212465.936890802",
                "miles": "22501382.9301929876"
            },
            "orbiting_body": "Earth"
        }
    ],
    "orbital_data": {
        "orbit_id": "4",
        "orbit_determination_date": "2020-02-15 05:02:39",
        "first_observation_date": "2020-02-01",
        "last_observation_date": "2020-02-14",
        "data_arc_in_days": 13,
        "observations_used": 44,
        "orbit_uncertainty": "8",
        "minimum_orbit_intersection": ".0297622",
        "jupiter_tisserand_invariant": "3.987",
        "epoch_osculation": "2458881.5",
        "eccentricity": ".4554684553846132",
        "semi_major_axis": "1.755037429189624",
        "inclination": "8.739007846721044",
        "ascending_node_longitude": "133.6287519890759",
        "orbital_period": "849.2352281006482",
        "perihelion_distance": ".9556732421744435",
        "perihelion_argument": "41.49897944571099",
        "aphelion_distance": "2.554401616204805",
        "perihelion_time": "2458918.023134935262",
        "mean_anomaly": "344.5174480030685",
        "mean_motion": ".4239108177426362",
        "equinox": "J2000",
        "orbit_class": {
            "orbit_class_type": "APO",
            "orbit_class_description": "Near-Earth asteroid orbits which cross the Earth’s orbit similar to that of 1862 Apollo",
            "orbit_class_range": "a (semi-major axis) > 1.0 AU; q (perihelion) < 1.017 AU"
        }
    },
    "is_sentry_object": false
}